STARLINK-37037          
1 68084U 26042R   26074.25001157 -.01459118  00000+0 -62972-2 0  9998
2 68084  53.1597 166.8246 0000812  82.9992 265.0848 15.87202488  2944
STARLINK-37068          
1 68085U 26042S   26074.25001157 -.01451622  00000+0 -62155-2 0  9994
2 68085  53.1597 166.8179 0000789  81.0158 270.2619 15.87344698  2941
STARLINK-37067          
1 68086U 26042T   26074.25001157 -.01458625  00000+0 -62235-2 0  9994
2 68086  53.1598 166.8101 0000781  80.2269 274.8611 15.87430625  2942
STARLINK-37062          
1 68087U 26042U   26074.25001157 -.01458476  00000+0 -61891-2 0  9996
2 68087  53.1599 166.8028 0000775  76.9523 281.6821 15.87538799  2940
STARLINK-37059          
1 68088U 26042V   26074.25001157 -.01464389  00000+0 -61888-2 0  9993
2 68088  53.1599 166.7951 0000764  77.0727 285.2855 15.87633427  2942
STARLINK-37004          
1 68089U 26042W   26074.25001157 -.01462679  00000+0 -61465-2 0  9995
2 68089  53.1600 166.7883 0000761  82.5214 283.3338 15.87742873  2940
STARLINK-36320          
1 68090U 26042X   26074.25001157 -.01474537  00000+0 -61465-2 0  9993
2 68090  53.1601 166.7725 0000982  78.4997 294.8518 15.87926051  2933
STARLINK-36324          
1 68091U 26042Y   26074.25001157 -.01466259  00000+0 -61394-2 0  9997
2 68091  53.1598 166.7798 0000830  77.8336 291.8964 15.87821406  2931
STARLINK-36896          
1 68092U 26042Z   26074.25001157 -.01475248  00000+0 -61153-2 0  9999
2 68092  53.1597 166.7651 0001003  73.2728 303.5534 15.88037760  2945
STARLINK-36251          
1 68093U 26042AA  26074.25001157 -.01478496  00000+0 -60665-2 0  9995
2 68093  53.1596 166.7503 0000883  77.7344 306.2021 15.88248505  2930
STARLINK-36787          
1 68094U 26042AB  26074.25001157 -.01533436  00000+0 -61661-2 0  9999
2 68094  53.1593 166.7309 0000802  85.8022 307.2743 15.88283090  2936
STARLINK-36790          
1 68095U 26042AC  26074.25001157 -.01473464  00000+0 -60723-2 0  9992
2 68095  53.1596 166.7580 0000770  81.4411 298.8244 15.88152974  2936
STARLINK-36328          
1 68096U 26042AD  26074.25001157 -.01540934  00000+0 -61754-2 0  9995
2 68096  53.1597 166.7228 0000888  76.9760 320.0082 15.88362086  2938
STARLINK-36853          
1 68097U 26042AE  26074.25001157 -.01529915  00000+0 -61806-2 0  9990
2 68097  53.1596 166.7387 0000878  81.8287 307.5937 15.88184013  2944
GLOBAL-34               
1 68098U 26043A   26071.99616608  .00008884  00000+0  29276-3 0  9993
2 68098  42.0214  56.4132 0006382 310.0598  49.9679 15.31580793  1076
STARLINK-37022          
1 68101U 26044A   26074.25001157 -.01778361  93987-3 -38097-2 0  9995
2 68101  97.2821  34.5434 0001582 113.4835  25.1826 15.98698488  2294
