[{"OBJECT_NAME":"STARLINK-37037","OBJECT_ID":"2026-042R","EPOCH":"2026-03-15T06:00:00.999648","MEAN_MOTION":15.87202488,"ECCENTRICITY":8.124e-5,"INCLINATION":53.1597,"RA_OF_ASC_NODE":166.8246,"ARG_OF_PERICENTER":82.9992,"MEAN_ANOMALY":265.0848,"EPHEMERIS_TYPE":0,"CLASSIFICATION_TYPE":"U","NORAD_CAT_ID":68084,"ELEMENT_SET_NO":999,"REV_AT_EPOCH":294,"BSTAR":-0.0062972489,"MEAN_MOTION_DOT":-0.01459118,"MEAN_MOTION_DDOT":0},{"OBJECT_NAME":"STARLINK-37068","OBJECT_ID":"2026-042S","EPOCH":"2026-03-15T06:00:00.999648","MEAN_MOTION":15.87344698,"ECCENTRICITY":7.897e-5,"INCLINATION":53.1597,"RA_OF_ASC_NODE":166.8179,"ARG_OF_PERICENTER":81.0158,"MEAN_ANOMALY":270.2619,"EPHEMERIS_TYPE":0,"CLASSIFICATION_TYPE":"U","NORAD_CAT_ID":68085,"ELEMENT_SET_NO":999,"REV_AT_EPOCH":294,"BSTAR":-0.0062155172,"MEAN_MOTION_DOT":-0.01451622,"MEAN_MOTION_DDOT":0},{"OBJECT_NAME":"STARLINK-37067","OBJECT_ID":"2026-042T","EPOCH":"2026-03-15T06:00:00.999648","MEAN_MOTION":15.87430625,"ECCENTRICITY":7.818e-5,"INCLINATION":53.1598,"RA_OF_ASC_NODE":166.8101,"ARG_OF_PERICENTER":80.2269,"MEAN_ANOMALY":274.8611,"EPHEMERIS_TYPE":0,"CLASSIFICATION_TYPE":"U","NORAD_CAT_ID":68086,"ELEMENT_SET_NO":999,"REV_AT_EPOCH":294,"BSTAR":-0.0062234501,"MEAN_MOTION_DOT":-0.01458625,"MEAN_MOTION_DDOT":0},{"OBJECT_NAME":"STARLINK-37062","OBJECT_ID":"2026-042U","EPOCH":"2026-03-15T06:00:00.999648","MEAN_MOTION":15.87538799,"ECCENTRICITY":7.757e-5,"INCLINATION":53.1599,"RA_OF_ASC_NODE":166.8028,"ARG_OF_PERICENTER":76.9523,"MEAN_ANOMALY":281.6821,"EPHEMERIS_TYPE":0,"CLASSIFICATION_TYPE":"U","NORAD_CAT_ID":68087,"ELEMENT_SET_NO":999,"REV_AT_EPOCH":294,"BSTAR":-0.0061890857,"MEAN_MOTION_DOT":-0.01458476,"MEAN_MOTION_DDOT":0},{"OBJECT_NAME":"STARLINK-37059","OBJECT_ID":"2026-042V","EPOCH":"2026-03-15T06:00:00.999648","MEAN_MOTION":15.87633427,"ECCENTRICITY":7.649e-5,"INCLINATION":53.1599,"RA_OF_ASC_NODE":166.7951,"ARG_OF_PERICENTER":77.0727,"MEAN_ANOMALY":285.2855,"EPHEMERIS_TYPE":0,"CLASSIFICATION_TYPE":"U","NORAD_CAT_ID":68088,"ELEMENT_SET_NO":999,"REV_AT_EPOCH":294,"BSTAR":-0.006188758,"MEAN_MOTION_DOT":-0.01464389,"MEAN_MOTION_DDOT":0},{"OBJECT_NAME":"STARLINK-37004","OBJECT_ID":"2026-042W","EPOCH":"2026-03-15T06:00:00.999648","MEAN_MOTION":15.87742873,"ECCENTRICITY":7.612e-5,"INCLINATION":53.16,"RA_OF_ASC_NODE":166.7883,"ARG_OF_PERICENTER":82.5214,"MEAN_ANOMALY":283.3338,"EPHEMERIS_TYPE":0,"CLASSIFICATION_TYPE":"U","NORAD_CAT_ID":68089,"ELEMENT_SET_NO":999,"REV_AT_EPOCH":294,"BSTAR":-0.006146502,"MEAN_MOTION_DOT":-0.01462679,"MEAN_MOTION_DDOT":0},{"OBJECT_NAME":"STARLINK-36320","OBJECT_ID":"2026-042X","EPOCH":"2026-03-15T06:00:00.999648","MEAN_MOTION":15.87926051,"ECCENTRICITY":9.825e-5,"INCLINATION":53.1601,"RA_OF_ASC_NODE":166.7725,"ARG_OF_PERICENTER":78.4997,"MEAN_ANOMALY":294.8518,"EPHEMERIS_TYPE":0,"CLASSIFICATION_TYPE":"U","NORAD_CAT_ID":68090,"ELEMENT_SET_NO":999,"REV_AT_EPOCH":293,"BSTAR":-0.0061465189,"MEAN_MOTION_DOT":-0.01474537,"MEAN_MOTION_DDOT":0},{"OBJECT_NAME":"STARLINK-36324","OBJECT_ID":"2026-042Y","EPOCH":"2026-03-15T06:00:00.999648","MEAN_MOTION":15.87821406,"ECCENTRICITY":8.308e-5,"INCLINATION":53.1598,"RA_OF_ASC_NODE":166.7798,"ARG_OF_PERICENTER":77.8336,"MEAN_ANOMALY":291.8964,"EPHEMERIS_TYPE":0,"CLASSIFICATION_TYPE":"U","NORAD_CAT_ID":68091,"ELEMENT_SET_NO":999,"REV_AT_EPOCH":293,"BSTAR":-0.0061393718,"MEAN_MOTION_DOT":-0.01466259,"MEAN_MOTION_DDOT":0},{"OBJECT_NAME":"STARLINK-36896","OBJECT_ID":"2026-042Z","EPOCH":"2026-03-15T06:00:00.999648","MEAN_MOTION":15.8803776,"ECCENTRICITY":0.00010033,"INCLINATION":53.1597,"RA_OF_ASC_NODE":166.7651,"ARG_OF_PERICENTER":73.2728,"MEAN_ANOMALY":303.5534,"EPHEMERIS_TYPE":0,"CLASSIFICATION_TYPE":"U","NORAD_CAT_ID":68092,"ELEMENT_SET_NO":999,"REV_AT_EPOCH":294,"BSTAR":-0.0061153282,"MEAN_MOTION_DOT":-0.01475248,"MEAN_MOTION_DDOT":0},{"OBJECT_NAME":"STARLINK-36251","OBJECT_ID":"2026-042AA","EPOCH":"2026-03-15T06:00:00.999648","MEAN_MOTION":15.88248505,"ECCENTRICITY":8.834e-5,"INCLINATION":53.1596,"RA_OF_ASC_NODE":166.7503,"ARG_OF_PERICENTER":77.7344,"MEAN_ANOMALY":306.2021,"EPHEMERIS_TYPE":0,"CLASSIFICATION_TYPE":"U","NORAD_CAT_ID":68093,"ELEMENT_SET_NO":999,"REV_AT_EPOCH":293,"BSTAR":-0.0060665278,"MEAN_MOTION_DOT":-0.01478496,"MEAN_MOTION_DDOT":0},{"OBJECT_NAME":"STARLINK-36787","OBJECT_ID":"2026-042AB","EPOCH":"2026-03-15T06:00:00.999648","MEAN_MOTION":15.8828309,"ECCENTRICITY":8.027e-5,"INCLINATION":53.1593,"RA_OF_ASC_NODE":166.7309,"ARG_OF_PERICENTER":85.8022,"MEAN_ANOMALY":307.2743,"EPHEMERIS_TYPE":0,"CLASSIFICATION_TYPE":"U","NORAD_CAT_ID":68094,"ELEMENT_SET_NO":999,"REV_AT_EPOCH":293,"BSTAR":-0.0061661177,"MEAN_MOTION_DOT":-0.01533436,"MEAN_MOTION_DDOT":0},{"OBJECT_NAME":"STARLINK-36790","OBJECT_ID":"2026-042AC","EPOCH":"2026-03-15T06:00:00.999648","MEAN_MOTION":15.88152974,"ECCENTRICITY":7.704e-5,"INCLINATION":53.1596,"RA_OF_ASC_NODE":166.758,"ARG_OF_PERICENTER":81.4411,"MEAN_ANOMALY":298.8244,"EPHEMERIS_TYPE":0,"CLASSIFICATION_TYPE":"U","NORAD_CAT_ID":68095,"ELEMENT_SET_NO":999,"REV_AT_EPOCH":293,"BSTAR":-0.0060722565,"MEAN_MOTION_DOT":-0.01473464,"MEAN_MOTION_DDOT":0},{"OBJECT_NAME":"STARLINK-36328","OBJECT_ID":"2026-042AD","EPOCH":"2026-03-15T06:00:00.999648","MEAN_MOTION":15.88362086,"ECCENTRICITY":8.885e-5,"INCLINATION":53.1597,"RA_OF_ASC_NODE":166.7228,"ARG_OF_PERICENTER":76.976,"MEAN_ANOMALY":320.0082,"EPHEMERIS_TYPE":0,"CLASSIFICATION_TYPE":"U","NORAD_CAT_ID":68096,"ELEMENT_SET_NO":999,"REV_AT_EPOCH":293,"BSTAR":-0.006175365,"MEAN_MOTION_DOT":-0.01540934,"MEAN_MOTION_DDOT":0},{"OBJECT_NAME":"STARLINK-36853","OBJECT_ID":"2026-042AE","EPOCH":"2026-03-15T06:00:00.999648","MEAN_MOTION":15.88184013,"ECCENTRICITY":8.787e-5,"INCLINATION":53.1596,"RA_OF_ASC_NODE":166.7387,"ARG_OF_PERICENTER":81.8287,"MEAN_ANOMALY":307.5937,"EPHEMERIS_TYPE":0,"CLASSIFICATION_TYPE":"U","NORAD_CAT_ID":68097,"ELEMENT_SET_NO":999,"REV_AT_EPOCH":294,"BSTAR":-0.0061806208,"MEAN_MOTION_DOT":-0.01529915,"MEAN_MOTION_DDOT":0},{"OBJECT_NAME":"GLOBAL-34","OBJECT_ID":"2026-043A","EPOCH":"2026-03-12T23:54:28.749312","MEAN_MOTION":15.31580793,"ECCENTRICITY":0.00063821,"INCLINATION":42.0214,"RA_OF_ASC_NODE":56.4132,"ARG_OF_PERICENTER":310.0598,"MEAN_ANOMALY":49.9679,"EPHEMERIS_TYPE":0,"CLASSIFICATION_TYPE":"U","NORAD_CAT_ID":68098,"ELEMENT_SET_NO":999,"REV_AT_EPOCH":107,"BSTAR":0.00029276458,"MEAN_MOTION_DOT":8.884e-5,"MEAN_MOTION_DDOT":0},{"OBJECT_NAME":"STARLINK-37022","OBJECT_ID":"2026-044A","EPOCH":"2026-03-15T06:00:00.999648","MEAN_MOTION":15.98698488,"ECCENTRICITY":0.00015828,"INCLINATION":97.2821,"RA_OF_ASC_NODE":34.5434,"ARG_OF_PERICENTER":113.4835,"MEAN_ANOMALY":25.1826,"EPHEMERIS_TYPE":0,"CLASSIFICATION_TYPE":"U","NORAD_CAT_ID":68101,"ELEMENT_SET_NO":999,"REV_AT_EPOCH":229,"BSTAR":-0.003809711,"MEAN_MOTION_DOT":-0.01778361,"MEAN_MOTION_DDOT":0.00093986949}]
